{"type": "FeatureCollection", "features": [ {"type": "Feature", "properties": {"norad_id": 29986, "name": "FENGYUN 1C DEB", "group": "fengyun-1c-debris", "lat": -75.70590757293725, "lon": 108.33528586161243, "alt_km": 788.4172652276711, "timestamp": "2025-12-25T03:55:56.630849+00:00", "meta": {"OBJECT_NAME": "FENGYUN 1C DEB", "OBJECT_ID": "1999-025LL", "EPOCH": "2025-12-24T04:52:31.370304", "MEAN_MOTION": 14.29301167, "ECCENTRICITY": 0.00230619, "INCLINATION": 99.3974, "RA_OF_ASC_NODE": 66.7595, "ARG_OF_PERICENTER": 322.415, "MEAN_ANOMALY": 58.0133, "EPHEMERIS_TYPE": 0, "CLASSIFICATION_TYPE": "U", "NORAD_CAT_ID": 29986, "ELEMENT_SET_NO": 999, "REV_AT_EPOCH": 97671, "BSTAR": 0.0016075655, "MEAN_MOTION_DOT": 4.054e-05, "MEAN_MOTION_DDOT": 0}, "tle": {"line1": "1 29986U 99025LL  25358.20314086  .00004054  00000+0  16076-2 0  9990", "line2": "2 29986  99.3974  66.7595 0023061 322.4150  58.0133 14.29301167976718"}}, "geometry": {"type": "Point", "coordinates": [108.33528586161243, -75.70590757293725]}}, {"type": "Feature", "properties": {"norad_id": 29987, "name": "FENGYUN 1C DEB", "group": "fengyun-1c-debris", "lat": -57.47571312712413, "lon": -94.67152819120312, "alt_km": 863.8624983356003, "timestamp": "2025-12-25T03:55:56.630860+00:00", "meta": {"OBJECT_NAME": "FENGYUN 1C DEB", "OBJECT_ID": "1999-025LM", "EPOCH": "2025-12-24T06:42:02.556864", "MEAN_MOTION": 14.14641063, "ECCENTRICITY": 0.00785833, "INCLINATION": 98.8977, "RA_OF_ASC_NODE": 250.2257, "ARG_OF_PERICENTER": 199.9887, "MEAN_ANOMALY": 277.8307, "EPHEMERIS_TYPE": 0, "CLASSIFICATION_TYPE": "U", "NORAD_CAT_ID": 29987, "ELEMENT_SET_NO": 999, "REV_AT_EPOCH": 96536, "BSTAR": 0.0023215884, "MEAN_MOTION_DOT": 4.556e-05, "MEAN_MOTION_DDOT": 0}, "tle": {"line1": "1 29987U 99025LM  25358.27919626  .00004556  00000+0  23216-2 0  9990", "line2": "2 29987  98.8977 250.2257 0078583 199.9887 277.8307 14.14641063965363"}}, "geometry": {"type": "Point", "coordinates": [-94.67152819120312, -57.47571312712413]}}, {"type": "Feature", "properties": {"norad_id": 29988, "name": "FENGYUN 1C DEB", "group": "fengyun-1c-debris", "lat": 53.75375227374942, "lon": -64.47506778304387, "alt_km": 788.2329165896217, "timestamp": "2025-12-25T03:55:56.630870+00:00", "meta": {"OBJECT_NAME": "FENGYUN 1C DEB", "OBJECT_ID": "1999-025LN", "EPOCH": "2025-12-24T18:08:18.159072", "MEAN_MOTION": 14.50524175, "ECCENTRICITY": 0.0120039, "INCLINATION": 98.6952, "RA_OF_ASC_NODE": 103.0548, "ARG_OF_PERICENTER": 341.6151, "MEAN_ANOMALY": 173.1141, "EPHEMERIS_TYPE": 0, "CLASSIFICATION_TYPE": "U", "NORAD_CAT_ID": 29988, "ELEMENT_SET_NO": 999, "REV_AT_EPOCH": 98241, "BSTAR": 0.0015476, "MEAN_MOTION_DOT": 6.601e-05, "MEAN_MOTION_DDOT": 0}, "tle": {"line1": "1 29988U 99025LN  25358.75576573  .00006601  00000+0  15476-2 0  9996", "line2": "2 29988  98.6952 103.0548 0120039 341.6151 173.1141 14.50524175982410"}}, "geometry": {"type": "Point", "coordinates": [-64.47506778304387, 53.75375227374942]}}, {"type": "Feature", "properties": {"norad_id": 29989, "name": "FENGYUN 1C DEB", "group": "fengyun-1c-debris", "lat": -62.554265785486216, "lon": -5.297872086855313, "alt_km": 910.6037036553889, "timestamp": "2025-12-25T03:55:56.630880+00:00", "meta": {"OBJECT_NAME": "FENGYUN 1C DEB", "OBJECT_ID": "1999-025LP", "EPOCH": "2025-12-24T20:07:39.335808", "MEAN_MOTION": 14.15825926, "ECCENTRICITY": 0.0123851, "INCLINATION": 98.6692, "RA_OF_ASC_NODE": 337.3025, "ARG_OF_PERICENTER": 160.9729, "MEAN_ANOMALY": 277.6289, "EPHEMERIS_TYPE": 0, "CLASSIFICATION_TYPE": "U", "NORAD_CAT_ID": 29989, "ELEMENT_SET_NO": 999, "REV_AT_EPOCH": 97782, "BSTAR": 0.00012566, "MEAN_MOTION_DOT": 2.24e-06, "MEAN_MOTION_DDOT": 0}, "tle": {"line1": "1 29989U 99025LP  25358.83864972  .00000224  00000+0  12566-3 0  9992", "line2": "2 29989  98.6692 337.3025 0123851 160.9729 277.6289 14.15825926977823"}}, "geometry": {"type": "Point", "coordinates": [-5.297872086855313, -62.554265785486216]}}, {"type": "Feature", "properties": {"norad_id": 29992, "name": "FENGYUN 1C DEB", "group": "fengyun-1c-debris", "lat": -29.643915385714088, "lon": -1.0201795710420003, "alt_km": 921.3301963279009, "timestamp": "2025-12-25T03:55:56.630891+00:00", "meta": {"OBJECT_NAME": "FENGYUN 1C DEB", "OBJECT_ID": "1999-025LS", "EPOCH": "2025-12-24T13:19:42.175200", "MEAN_MOTION": 14.11615581, "ECCENTRICITY": 0.0089413, "INCLINATION": 98.7308, "RA_OF_ASC_NODE": 353.3707, "ARG_OF_PERICENTER": 134.2818, "MEAN_ANOMALY": 345.5468, "EPHEMERIS_TYPE": 0, "CLASSIFICATION_TYPE": "U", "NORAD_CAT_ID": 29992, "ELEMENT_SET_NO": 999, "REV_AT_EPOCH": 97554, "BSTAR": 6.1172e-05, "MEAN_MOTION_DOT": 7.3e-07, "MEAN_MOTION_DDOT": 0}, "tle": {"line1": "1 29992U 99025LS  25358.55534925  .00000073  00000+0  61172-4 0  9997", "line2": "2 29992  98.7308 353.3707 0089413 134.2818 345.5468 14.11615581975546"}}, "geometry": {"type": "Point", "coordinates": [-1.0201795710420003, -29.643915385714088]}}, {"type": "Feature", "properties": {"norad_id": 29993, "name": "FENGYUN 1C DEB", "group": "fengyun-1c-debris", "lat": 41.54993175549648, "lon": -136.53909450002695, "alt_km": 883.850178769565, "timestamp": "2025-12-25T03:55:56.630901+00:00", "meta": {"OBJECT_NAME": "FENGYUN 1C DEB", "OBJECT_ID": "1999-025LT", "EPOCH": "2025-12-24T15:20:23.506080", "MEAN_MOTION": 14.08152049, "ECCENTRICITY": 0.0038268, "INCLINATION": 98.7919, "RA_OF_ASC_NODE": 35.0662, "ARG_OF_PERICENTER": 280.3846, "MEAN_ANOMALY": 79.3011, "EPHEMERIS_TYPE": 0, "CLASSIFICATION_TYPE": "U", "NORAD_CAT_ID": 29993, "ELEMENT_SET_NO": 999, "REV_AT_EPOCH": 97337, "BSTAR": 1.1827e-05, "MEAN_MOTION_DOT": -2.3e-07, "MEAN_MOTION_DDOT": 0}, "tle": {"line1": "1 29993U 99025LT  25358.63916095 -.00000023  00000+0  11827-4 0  9997", "line2": "2 29993  98.7919  35.0662 0038268 280.3846  79.3011 14.08152049973371"}}, "geometry": {"type": "Point", "coordinates": [-136.53909450002695, 41.54993175549648]}}, {"type": "Feature", "properties": {"norad_id": 29994, "name": "FENGYUN 1C DEB", "group": "fengyun-1c-debris", "lat": -4.6101972423248965, "lon": -149.68622570503805, "alt_km": 794.100174949257, "timestamp": "2025-12-25T03:55:56.630911+00:00", "meta": {"OBJECT_NAME": "FENGYUN 1C DEB", "OBJECT_ID": "1999-025LU", "EPOCH": "2025-12-24T15:36:34.824384", "MEAN_MOTION": 14.02645364, "ECCENTRICITY": 0.0130041, "INCLINATION": 98.8265, "RA_OF_ASC_NODE": 30.534, "ARG_OF_PERICENTER": 180.3359, "MEAN_ANOMALY": 292.8374, "EPHEMERIS_TYPE": 0, "CLASSIFICATION_TYPE": "U", "NORAD_CAT_ID": 29994, "ELEMENT_SET_NO": 999, "REV_AT_EPOCH": 96893, "BSTAR": -2.2796e-05, "MEAN_MOTION_DOT": -8e-07, "MEAN_MOTION_DDOT": 0}, "tle": {"line1": "1 29994U 99025LU  25358.65040306 -.00000080  00000+0 -22796-4 0  9994", "line2": "2 29994  98.8265  30.5340 0130041 180.3359 292.8374 14.02645364968931"}}, "geometry": {"type": "Point", "coordinates": [-149.68622570503805, -4.6101972423248965]}}, {"type": "Feature", "properties": {"norad_id": 29996, "name": "FENGYUN 1C DEB", "group": "fengyun-1c-debris", "lat": -50.50747243425576, "lon": 48.42453761062063, "alt_km": 890.5466446840655, "timestamp": "2025-12-25T03:55:56.630921+00:00", "meta": {"OBJECT_NAME": "FENGYUN 1C DEB", "OBJECT_ID": "1999-025LW", "EPOCH": "2025-12-24T16:49:11.712864", "MEAN_MOTION": 14.09493163, "ECCENTRICITY": 0.0130521, "INCLINATION": 99.3037, "RA_OF_ASC_NODE": 36.473, "ARG_OF_PERICENTER": 54.4836, "MEAN_ANOMALY": 67.4422, "EPHEMERIS_TYPE": 0, "CLASSIFICATION_TYPE": "U", "NORAD_CAT_ID": 29996, "ELEMENT_SET_NO": 999, "REV_AT_EPOCH": 96305, "BSTAR": 0.0018189, "MEAN_MOTION_DOT": 3.394e-05, "MEAN_MOTION_DDOT": 0}, "tle": {"line1": "1 29996U 99025LW  25358.70083001  .00003394  00000+0  18189-2 0  9999", "line2": "2 29996  99.3037  36.4730 0130521  54.4836  67.4422 14.09493163963051"}}, "geometry": {"type": "Point", "coordinates": [48.42453761062063, -50.50747243425576]}}, {"type": "Feature", "properties": {"norad_id": 29997, "name": "FENGYUN 1C DEB", "group": "fengyun-1c-debris", "lat": -58.22827144938081, "lon": 23.89428683374694, "alt_km": 840.0179433735784, "timestamp": "2025-12-25T03:55:56.630932+00:00", "meta": {"OBJECT_NAME": "FENGYUN 1C DEB", "OBJECT_ID": "1999-025LX", "EPOCH": "2025-12-24T18:46:57.884160", "MEAN_MOTION": 14.00906981, "ECCENTRICITY": 0.0080109, "INCLINATION": 98.8828, "RA_OF_ASC_NODE": 8.8979, "ARG_OF_PERICENTER": 293.8407, "MEAN_ANOMALY": 245.1137, "EPHEMERIS_TYPE": 0, "CLASSIFICATION_TYPE": "U", "NORAD_CAT_ID": 29997, "ELEMENT_SET_NO": 999, "REV_AT_EPOCH": 96558, "BSTAR": 0.00077094, "MEAN_MOTION_DOT": 1.142e-05, "MEAN_MOTION_DDOT": 0}, "tle": {"line1": "1 29997U 99025LX  25358.78261440  .00001142  00000+0  77094-3 0  9993", "line2": "2 29997  98.8828   8.8979 0080109 293.8407 245.1137 14.00906981965587"}}, "geometry": {"type": "Point", "coordinates": [23.89428683374694, -58.22827144938081]}}, {"type": "Feature", "properties": {"norad_id": 29998, "name": "FENGYUN 1C DEB", "group": "fengyun-1c-debris", "lat": -12.004307182654852, "lon": 62.37636938231857, "alt_km": 800.6445864040552, "timestamp": "2025-12-25T03:55:56.630942+00:00", "meta": {"OBJECT_NAME": "FENGYUN 1C DEB", "OBJECT_ID": "1999-025LY", "EPOCH": "2025-12-24T16:13:22.271808", "MEAN_MOTION": 14.28595104, "ECCENTRICITY": 0.0005364, "INCLINATION": 99.3047, "RA_OF_ASC_NODE": 59.8587, "ARG_OF_PERICENTER": 260.9398, "MEAN_ANOMALY": 99.1175, "EPHEMERIS_TYPE": 0, "CLASSIFICATION_TYPE": "U", "NORAD_CAT_ID": 29998, "ELEMENT_SET_NO": 999, "REV_AT_EPOCH": 98045, "BSTAR": 0.00088351, "MEAN_MOTION_DOT": 2.168e-05, "MEAN_MOTION_DDOT": 0}, "tle": {"line1": "1 29998U 99025LY  25358.67595222  .00002168  00000+0  88351-3 0  9997", "line2": "2 29998  99.3047  59.8587 0005364 260.9398  99.1175 14.28595104980455"}}, "geometry": {"type": "Point", "coordinates": [62.37636938231857, -12.004307182654852]}}]}